{
  "type": "FeatureCollection",
  "features": [
    {
      "type": "Feature",
      "properties": {
        "norad_id": 63632,
        "name": "SHENZHOU-20 (SZ-20)",
        "group": "stations",
        "lat": -40.45524542018865,
        "lon": 1.4853847335155628,
        "alt_km": 389.26625203054664,
        "timestamp": "2025-12-02T21:34:00.060484+00:00",
        "meta_object_name": "SHENZHOU-20 (SZ-20)",
        "meta_object_id": "2025-082A",
        "meta_epoch": "2025-12-02T06:31:22.828800",
        "meta_mean_motion": 15.58517706,
        "meta_eccentricity": 0.00102589,
        "meta_inclination": 41.4672,
        "meta_ra_of_asc_node": 80.2264,
        "meta_arg_of_pericenter": 312.0297,
        "meta_mean_anomaly": 47.9667,
        "meta_ephemeris_type": 0,
        "meta_classification_type": "U",
        "meta_norad_cat_id": 63632,
        "meta_element_set_no": 999,
        "meta_rev_at_epoch": 25530,
        "meta_bstar": 0.00032073258,
        "meta_mean_motion_dot": 0.00025017,
        "meta_mean_motion_ddot": 0,
        "tle_line1": "1 63632U 25082A   25336.27179200  .00025017  00000+0  32073-3 0  9996",
        "tle_line2": "2 63632  41.4672  80.2264 0010258 312.0297  47.9667 15.58517706255307"
      },
      "geometry": {
        "type": "Point",
        "coordinates": [
          1.4853847335155628,
          -40.45524542018865
        ]
      }
    },
    {
      "type": "Feature",
      "properties": {
        "norad_id": 64751,
        "name": "PROGRESS-MS 31",
        "group": "stations",
        "lat": -0.3472147346156666,
        "lon": 11.472613972912088,
        "alt_km": 417.3265480735172,
        "timestamp": "2025-12-02T21:34:00.060497+00:00",
        "meta_object_name": "PROGRESS-MS 31",
        "meta_object_id": "2025-146A",
        "meta_epoch": "2025-12-02T02:12:50.598720",
        "meta_mean_motion": 15.49237019,
        "meta_eccentricity": 0.00036389,
        "meta_inclination": 51.6314,
        "meta_ra_of_asc_node": 195.1903,
        "meta_arg_of_pericenter": 193.8265,
        "meta_mean_anomaly": 166.2625,
        "meta_ephemeris_type": 0,
        "meta_classification_type": "U",
        "meta_norad_cat_id": 64751,
        "meta_element_set_no": 999,
        "meta_rev_at_epoch": 675,
        "meta_bstar": 0.00017380747,
        "meta_mean_motion_dot": 9.217e-05,
        "meta_mean_motion_ddot": 0,
        "tle_line1": "1 64751U 25146A   25336.09225230  .00009217  00000+0  17381-3 0  9994",
        "tle_line2": "2 64751  51.6314 195.1903 0003638 193.8265 166.2625 15.49237019  6754"
      },
      "geometry": {
        "type": "Point",
        "coordinates": [
          11.472613972912088,
          -0.3472147346156666
        ]
      }
    },
    {
      "type": "Feature",
      "properties": {
        "norad_id": 64786,
        "name": "TIANZHOU-9",
        "group": "stations",
        "lat": -40.45524515171211,
        "lon": 1.485386752479753,
        "alt_km": 389.26625191017774,
        "timestamp": "2025-12-02T21:34:00.060508+00:00",
        "meta_object_name": "TIANZHOU-9",
        "meta_object_id": "2025-149A",
        "meta_epoch": "2025-12-02T06:31:22.828800",
        "meta_mean_motion": 15.58517706,
        "meta_eccentricity": 0.00102589,
        "meta_inclination": 41.4672,
        "meta_ra_of_asc_node": 80.2264,
        "meta_arg_of_pericenter": 312.0297,
        "meta_mean_anomaly": 47.9667,
        "meta_ephemeris_type": 0,
        "meta_classification_type": "U",
        "meta_norad_cat_id": 64786,
        "meta_element_set_no": 999,
        "meta_rev_at_epoch": 25530,
        "meta_bstar": 0.00032073258,
        "meta_mean_motion_dot": 0.00025017,
        "meta_mean_motion_ddot": 0,
        "tle_line1": "1 64786U 25149A   25336.27179200  .00025017  00000+0  32073-3 0  9991",
        "tle_line2": "2 64786  41.4672  80.2264 0010258 312.0297  47.9667 15.58517706255308"
      },
      "geometry": {
        "type": "Point",
        "coordinates": [
          1.485386752479753,
          -40.45524515171211
        ]
      }
    },
    {
      "type": "Feature",
      "properties": {
        "norad_id": 65077,
        "name": "CREW DRAGON 11",
        "group": "stations",
        "lat": -0.3472157987296814,
        "lon": 11.472614814809065,
        "alt_km": 417.32654819506115,
        "timestamp": "2025-12-02T21:34:00.060518+00:00",
        "meta_object_name": "CREW DRAGON 11",
        "meta_object_id": "2025-166A",
        "meta_epoch": "2025-12-02T02:12:50.598720",
        "meta_mean_motion": 15.49237019,
        "meta_eccentricity": 0.00036389,
        "meta_inclination": 51.6314,
        "meta_ra_of_asc_node": 195.1903,
        "meta_arg_of_pericenter": 193.8265,
        "meta_mean_anomaly": 166.2625,
        "meta_ephemeris_type": 0,
        "meta_classification_type": "U",
        "meta_norad_cat_id": 65077,
        "meta_element_set_no": 999,
        "meta_rev_at_epoch": 214,
        "meta_bstar": 0.00017380747,
        "meta_mean_motion_dot": 9.217e-05,
        "meta_mean_motion_ddot": 0,
        "tle_line1": "1 65077U 25166A   25336.09225230  .00009217  00000+0  17381-3 0  9998",
        "tle_line2": "2 65077  51.6314 195.1903 0003638 193.8265 166.2625 15.49237019  2145"
      },
      "geometry": {
        "type": "Point",
        "coordinates": [
          11.472614814809065,
          -0.3472157987296814
        ]
      }
    },
    {
      "type": "Feature",
      "properties": {
        "norad_id": 65304,
        "name": "DRAGON CRS-33",
        "group": "stations",
        "lat": -0.3472164067943851,
        "lon": 11.472615295892705,
        "alt_km": 417.32654826451653,
        "timestamp": "2025-12-02T21:34:00.060530+00:00",
        "meta_object_name": "DRAGON CRS-33",
        "meta_object_id": "2025-186A",
        "meta_epoch": "2025-12-02T02:12:50.598720",
        "meta_mean_motion": 15.49237019,
        "meta_eccentricity": 0.00036389,
        "meta_inclination": 51.6314,
        "meta_ra_of_asc_node": 195.1903,
        "meta_arg_of_pericenter": 193.8265,
        "meta_mean_anomaly": 166.2625,
        "meta_ephemeris_type": 0,
        "meta_classification_type": "U",
        "meta_norad_cat_id": 65304,
        "meta_element_set_no": 999,
        "meta_rev_at_epoch": 11,
        "meta_bstar": 0.00017380747,
        "meta_mean_motion_dot": 9.217e-05,
        "meta_mean_motion_ddot": 0,
        "tle_line1": "1 65304U 25186A   25336.09225230  .00009217  00000+0  17381-3 0  9993",
        "tle_line2": "2 65304  51.6314 195.1903 0003638 193.8265 166.2625 15.49237019   113"
      },
      "geometry": {
        "type": "Point",
        "coordinates": [
          11.472615295892705,
          -0.3472164067943851
        ]
      }
    },
    {
      "type": "Feature",
      "properties": {
        "norad_id": 65586,
        "name": "PROGRESS-MS 32",
        "group": "stations",
        "lat": -0.3472169135153074,
        "lon": 11.472615696795993,
        "alt_km": 417.32654832239314,
        "timestamp": "2025-12-02T21:34:00.060540+00:00",
        "meta_object_name": "PROGRESS-MS 32",
        "meta_object_id": "2025-204A",
        "meta_epoch": "2025-12-02T02:12:50.598720",
        "meta_mean_motion": 15.49237019,
        "meta_eccentricity": 0.00036389,
        "meta_inclination": 51.6314,
        "meta_ra_of_asc_node": 195.1903,
        "meta_arg_of_pericenter": 193.8265,
        "meta_mean_anomaly": 166.2625,
        "meta_ephemeris_type": 0,
        "meta_classification_type": "U",
        "meta_norad_cat_id": 65586,
        "meta_element_set_no": 999,
        "meta_rev_at_epoch": 27,
        "meta_bstar": 0.00017380747,
        "meta_mean_motion_dot": 9.217e-05,
        "meta_mean_motion_ddot": 0,
        "tle_line1": "1 65586U 25204A   25336.09225230  .00009217  00000+0  17381-3 0  9996",
        "tle_line2": "2 65586  51.6314 195.1903 0003638 193.8265 166.2625 15.49237019   272"
      },
      "geometry": {
        "type": "Point",
        "coordinates": [
          11.472615696795993,
          -0.3472169135153074
        ]
      }
    },
    {
      "type": "Feature",
      "properties": {
        "norad_id": 65616,
        "name": "CYGNUS NG-23",
        "group": "stations",
        "lat": -0.3472174202368682,
        "lon": 11.47261609769979,
        "alt_km": 417.3265483802752,
        "timestamp": "2025-12-02T21:34:00.060550+00:00",
        "meta_object_name": "CYGNUS NG-23",
        "meta_object_id": "2025-208A",
        "meta_epoch": "2025-12-02T02:12:50.598720",
        "meta_mean_motion": 15.49237019,
        "meta_eccentricity": 0.00036389,
        "meta_inclination": 51.6314,
        "meta_ra_of_asc_node": 195.1903,
        "meta_arg_of_pericenter": 193.8265,
        "meta_mean_anomaly": 166.2625,
        "meta_ephemeris_type": 0,
        "meta_classification_type": "U",
        "meta_norad_cat_id": 65616,
        "meta_element_set_no": 999,
        "meta_rev_at_epoch": 22,
        "meta_bstar": 0.00017380747,
        "meta_mean_motion_dot": 9.217e-05,
        "meta_mean_motion_ddot": 0,
        "tle_line1": "1 65616U 25208A   25336.09225230  .00009217  00000+0  17381-3 0  9994",
        "tle_line2": "2 65616  51.6314 195.1903 0003638 193.8265 166.2625 15.49237019   221"
      },
      "geometry": {
        "type": "Point",
        "coordinates": [
          11.47261609769979,
          -0.3472174202368682
        ]
      }
    }
  ]
}